{
  "type": "FeatureCollection",
  "features": [
    {
      "type": "Feature",
      "properties": {
        "norad_id": 36036,
        "name": "SMOS",
        "group": "resource",
        "lat": 10.189598658466362,
        "lon": -9.671848912362304,
        "alt_km": 760.8379175396049,
        "timestamp": "2025-12-09T16:56:36.236829+00:00",
        "meta_object_name": "SMOS",
        "meta_object_id": "2009-059A",
        "meta_epoch": "2025-12-09T11:09:16.407072",
        "meta_mean_motion": 14.39737201,
        "meta_eccentricity": 0.000111,
        "meta_inclination": 98.4382,
        "meta_ra_of_asc_node": 168.5617,
        "meta_arg_of_pericenter": 84.4933,
        "meta_mean_anomaly": 275.6382,
        "meta_ephemeris_type": 0,
        "meta_classification_type": "U",
        "meta_norad_cat_id": 36036,
        "meta_element_set_no": 999,
        "meta_rev_at_epoch": 84615,
        "meta_bstar": 0.00024022,
        "meta_mean_motion_dot": 7.09e-06,
        "meta_mean_motion_ddot": 0,
        "tle_line1": "1 36036U 09059A   25343.46477323  .00000709  00000+0  24022-3 0  9992",
        "tle_line2": "2 36036  98.4382 168.5617 0001110  84.4933 275.6382 14.39737201846156"
      },
      "geometry": {
        "type": "Point",
        "coordinates": [
          -9.671848912362304,
          10.189598658466362
        ]
      }
    },
    {
      "type": "Feature",
      "properties": {
        "norad_id": 36110,
        "name": "YAOGAN-7",
        "group": "resource",
        "lat": -58.787212863325195,
        "lon": -121.05321686105611,
        "alt_km": 627.3473030527648,
        "timestamp": "2025-12-09T16:56:36.236840+00:00",
        "meta_object_name": "YAOGAN-7",
        "meta_object_id": "2009-069A",
        "meta_epoch": "2025-12-09T05:50:11.993568",
        "meta_mean_motion": 14.77724948,
        "meta_eccentricity": 0.0023477,
        "meta_inclination": 98.0303,
        "meta_ra_of_asc_node": 225.0126,
        "meta_arg_of_pericenter": 293.2001,
        "meta_mean_anomaly": 66.6736,
        "meta_ephemeris_type": 0,
        "meta_classification_type": "U",
        "meta_norad_cat_id": 36110,
        "meta_element_set_no": 999,
        "meta_rev_at_epoch": 86157,
        "meta_bstar": 0.00018231,
        "meta_mean_motion_dot": 1.259e-05,
        "meta_mean_motion_ddot": 0,
        "tle_line1": "1 36110U 09069A   25343.24319437  .00001259  00000+0  18231-3 0  9999",
        "tle_line2": "2 36110  98.0303 225.0126 0023477 293.2001  66.6736 14.77724948861578"
      },
      "geometry": {
        "type": "Point",
        "coordinates": [
          -121.05321686105611,
          -58.787212863325195
        ]
      }
    },
    {
      "type": "Feature",
      "properties": {
        "norad_id": 36605,
        "name": "TANDEM-X",
        "group": "resource",
        "lat": 81.3226104926191,
        "lon": -131.90205002280575,
        "alt_km": 499.5257020658364,
        "timestamp": "2025-12-09T16:56:36.236872+00:00",
        "meta_object_name": "TANDEM-X",
        "meta_object_id": "2010-030A",
        "meta_epoch": "2025-12-08T13:39:18.929376",
        "meta_mean_motion": 15.19159019,
        "meta_eccentricity": 0.0002067,
        "meta_inclination": 97.4453,
        "meta_ra_of_asc_node": 348.0112,
        "meta_arg_of_pericenter": 89.3333,
        "meta_mean_anomaly": 270.8138,
        "meta_ephemeris_type": 0,
        "meta_classification_type": "U",
        "meta_norad_cat_id": 36605,
        "meta_element_set_no": 999,
        "meta_rev_at_epoch": 85770,
        "meta_bstar": 0.00014235,
        "meta_mean_motion_dot": 2.924e-05,
        "meta_mean_motion_ddot": 0,
        "tle_line1": "1 36605U 10030A   25342.56896909  .00002924  00000+0  14235-3 0  9996",
        "tle_line2": "2 36605  97.4453 348.0112 0002067  89.3333 270.8138 15.19159019857704"
      },
      "geometry": {
        "type": "Point",
        "coordinates": [
          -131.90205002280575,
          81.3226104926191
        ]
      }
    },
    {
      "type": "Feature",
      "properties": {
        "norad_id": 36795,
        "name": "CARTOSAT-2B",
        "group": "resource",
        "lat": -36.381090804232166,
        "lon": -152.9500339961538,
        "alt_km": 645.4274467199257,
        "timestamp": "2025-12-09T16:56:36.236883+00:00",
        "meta_object_name": "CARTOSAT-2B",
        "meta_object_id": "2010-035A",
        "meta_epoch": "2025-12-09T11:05:45.176352",
        "meta_mean_motion": 14.78783211,
        "meta_eccentricity": 0.0012942,
        "meta_inclination": 97.7851,
        "meta_ra_of_asc_node": 32.5992,
        "meta_arg_of_pericenter": 86.8348,
        "meta_mean_anomaly": 273.4344,
        "meta_ephemeris_type": 0,
        "meta_classification_type": "U",
        "meta_norad_cat_id": 36795,
        "meta_element_set_no": 999,
        "meta_rev_at_epoch": 83181,
        "meta_bstar": 0.00019205,
        "meta_mean_motion_dot": 1.363e-05,
        "meta_mean_motion_ddot": 0,
        "tle_line1": "1 36795U 10035A   25343.46232843  .00001363  00000+0  19205-3 0  9990",
        "tle_line2": "2 36795  97.7851  32.5992 0012942  86.8348 273.4344 14.78783211831814"
      },
      "geometry": {
        "type": "Point",
        "coordinates": [
          -152.9500339961538,
          -36.381090804232166
        ]
      }
    },
    {
      "type": "Feature",
      "properties": {
        "norad_id": 36834,
        "name": "YAOGAN-10",
        "group": "resource",
        "lat": -52.36473376744213,
        "lon": 173.15571203019405,
        "alt_km": 622.7414751156048,
        "timestamp": "2025-12-09T16:56:36.236895+00:00",
        "meta_object_name": "YAOGAN-10",
        "meta_object_id": "2010-038A",
        "meta_epoch": "2025-12-09T13:20:28.062240",
        "meta_mean_motion": 14.8458826,
        "meta_eccentricity": 0.0001426,
        "meta_inclination": 97.9141,
        "meta_ra_of_asc_node": 3.4,
        "meta_arg_of_pericenter": 81.1973,
        "meta_mean_anomaly": 70.1089,
        "meta_ephemeris_type": 0,
        "meta_classification_type": "U",
        "meta_norad_cat_id": 36834,
        "meta_element_set_no": 999,
        "meta_rev_at_epoch": 82906,
        "meta_bstar": 0.00040002,
        "meta_mean_motion_dot": 3.325e-05,
        "meta_mean_motion_ddot": 0,
        "tle_line1": "1 36834U 10038A   25343.55588035  .00003325  00000+0  40002-3 0  9993",
        "tle_line2": "2 36834  97.9141   3.4000 0001426  81.1973  70.1089 14.84588260829062"
      },
      "geometry": {
        "type": "Point",
        "coordinates": [
          173.15571203019405,
          -52.36473376744213
        ]
      }
    },
    {
      "type": "Feature",
      "properties": {
        "norad_id": 37216,
        "name": "COSMO-SKYMED 4",
        "group": "resource",
        "lat": -2.82237973224277,
        "lon": -15.316696706608408,
        "alt_km": 626.1043933979672,
        "timestamp": "2025-12-09T16:56:36.236906+00:00",
        "meta_object_name": "COSMO-SKYMED 4",
        "meta_object_id": "2010-060A",
        "meta_epoch": "2025-12-09T12:52:52.314240",
        "meta_mean_motion": 14.82163041,
        "meta_eccentricity": 0.0001378,
        "meta_inclination": 97.8804,
        "meta_ra_of_asc_node": 164.9079,
        "meta_arg_of_pericenter": 80.3932,
        "meta_mean_anomaly": 279.7436,
        "meta_ephemeris_type": 0,
        "meta_classification_type": "U",
        "meta_norad_cat_id": 37216,
        "meta_element_set_no": 999,
        "meta_rev_at_epoch": 81647,
        "meta_bstar": 0.00014649,
        "meta_mean_motion_dot": 1.114e-05,
        "meta_mean_motion_ddot": 0,
        "tle_line1": "1 37216U 10060A   25343.53671660  .00001114  00000+0  14649-3 0  9990",
        "tle_line2": "2 37216  97.8804 164.9079 0001378  80.3932 279.7436 14.82163041816471"
      },
      "geometry": {
        "type": "Point",
        "coordinates": [
          -15.316696706608408,
          -2.82237973224277
        ]
      }
    },
    {
      "type": "Feature",
      "properties": {
        "norad_id": 37387,
        "name": "RESOURCESAT-2",
        "group": "resource",
        "lat": 80.99893050599486,
        "lon": -30.304672251268457,
        "alt_km": 808.7565954161346,
        "timestamp": "2025-12-09T16:56:36.236917+00:00",
        "meta_object_name": "RESOURCESAT-2",
        "meta_object_id": "2011-015A",
        "meta_epoch": "2025-12-09T11:27:48.934944",
        "meta_mean_motion": 14.21595404,
        "meta_eccentricity": 0.000658,
        "meta_inclination": 98.7881,
        "meta_ra_of_asc_node": 47.0441,
        "meta_arg_of_pericenter": 51.05,
        "meta_mean_anomaly": 309.1263,
        "meta_ephemeris_type": 0,
        "meta_classification_type": "U",
        "meta_norad_cat_id": 37387,
        "meta_element_set_no": 999,
        "meta_rev_at_epoch": 75922,
        "meta_bstar": 0.00015126,
        "meta_mean_motion_dot": 2.87e-06,
        "meta_mean_motion_ddot": 0,
        "tle_line1": "1 37387U 11015A   25343.47764971  .00000287  00000+0  15126-3 0  9992",
        "tle_line2": "2 37387  98.7881  47.0441 0006580  51.0500 309.1263 14.21595404759225"
      },
      "geometry": {
        "type": "Point",
        "coordinates": [
          -30.304672251268457,
          80.99893050599486
        ]
      }
    }
  ]
}